{
  "type": "FeatureCollection",
  "features": [
    {
      "type": "Feature",
      "properties": {
        "norad_id": 28890,
        "name": "BEIJING 1",
        "group": "dmc",
        "lat": -39.65484611991533,
        "lon": -61.979503060415254,
        "alt_km": 692.6428793982614,
        "timestamp": "2025-12-23T09:49:06.742851+00:00",
        "meta_object_name": "BEIJING 1",
        "meta_object_id": "2005-043A",
        "meta_epoch": "2025-12-22T22:58:17.053248",
        "meta_mean_motion": 14.63374766,
        "meta_eccentricity": 0.00157568,
        "meta_inclination": 98.2663,
        "meta_ra_of_asc_node": 124.4887,
        "meta_arg_of_pericenter": 111.1406,
        "meta_mean_anomaly": 249.1482,
        "meta_ephemeris_type": 0,
        "meta_classification_type": "U",
        "meta_norad_cat_id": 28890,
        "meta_element_set_no": 999,
        "meta_rev_at_epoch": 7487,
        "meta_bstar": 7.6345403e-05,
        "meta_mean_motion_dot": 3.46e-06,
        "meta_mean_motion_ddot": 0,
        "tle_line1": "1 28890U 05043A   25356.95714182  .00000346  00000+0  76345-4 0  9998",
        "tle_line2": "2 28890  98.2663 124.4887 0015756 111.1406 249.1482 14.63374766 74878"
      },
      "geometry": {
        "type": "Point",
        "coordinates": [
          -61.979503060415254,
          -39.65484611991533
        ]
      }
    },
    {
      "type": "Feature",
      "properties": {
        "norad_id": 33320,
        "name": "HUANJING 1A (HJ-1A)",
        "group": "dmc",
        "lat": -63.827906907546826,
        "lon": 1.1429678606128244,
        "alt_km": 620.0953806430862,
        "timestamp": "2025-12-23T09:49:06.742874+00:00",
        "meta_object_name": "HUANJING 1A (HJ-1A)",
        "meta_object_id": "2008-041A",
        "meta_epoch": "2025-12-22T22:46:39.693792",
        "meta_mean_motion": 14.83424951,
        "meta_eccentricity": 0.00193716,
        "meta_inclination": 97.6542,
        "meta_ra_of_asc_node": 344.8211,
        "meta_arg_of_pericenter": 2.1192,
        "meta_mean_anomaly": 358.0101,
        "meta_ephemeris_type": 0,
        "meta_classification_type": "U",
        "meta_norad_cat_id": 33320,
        "meta_element_set_no": 999,
        "meta_rev_at_epoch": 93227,
        "meta_bstar": 0.00018761049,
        "meta_mean_motion_dot": 1.494e-05,
        "meta_mean_motion_ddot": 0,
        "tle_line1": "1 33320U 08041A   25356.94907053  .00001494  00000+0  18761-3 0  9995",
        "tle_line2": "2 33320  97.6542 344.8211 0019371   2.1192 358.0101 14.83424951932277"
      },
      "geometry": {
        "type": "Point",
        "coordinates": [
          1.1429678606128244,
          -63.827906907546826
        ]
      }
    },
    {
      "type": "Feature",
      "properties": {
        "norad_id": 33321,
        "name": "HUANJING 1B (HJ-1B)",
        "group": "dmc",
        "lat": 44.62860979413762,
        "lon": 176.54505582102212,
        "alt_km": 617.8265411095517,
        "timestamp": "2025-12-23T09:49:06.742889+00:00",
        "meta_object_name": "HUANJING 1B (HJ-1B)",
        "meta_object_id": "2008-041B",
        "meta_epoch": "2025-12-22T23:29:56.378400",
        "meta_mean_motion": 14.82844247,
        "meta_eccentricity": 0.0037865,
        "meta_inclination": 97.6399,
        "meta_ra_of_asc_node": 348.5201,
        "meta_arg_of_pericenter": 43.2937,
        "meta_mean_anomaly": 317.1241,
        "meta_ephemeris_type": 0,
        "meta_classification_type": "U",
        "meta_norad_cat_id": 33321,
        "meta_element_set_no": 999,
        "meta_rev_at_epoch": 93229,
        "meta_bstar": 7.5562688e-05,
        "meta_mean_motion_dot": 5.67e-06,
        "meta_mean_motion_ddot": 0,
        "tle_line1": "1 33321U 08041B   25356.97912475  .00000567  00000+0  75563-4 0  9997",
        "tle_line2": "2 33321  97.6399 348.5201 0037865  43.2937 317.1241 14.82844247932295"
      },
      "geometry": {
        "type": "Point",
        "coordinates": [
          176.54505582102212,
          44.62860979413762
        ]
      }
    },
    {
      "type": "Feature",
      "properties": {
        "norad_id": 33446,
        "name": "YAOGAN-4",
        "group": "dmc",
        "lat": 40.5509278770777,
        "lon": -79.4362042740526,
        "alt_km": 621.5101515582837,
        "timestamp": "2025-12-23T09:49:06.742902+00:00",
        "meta_object_name": "YAOGAN-4",
        "meta_object_id": "2008-061A",
        "meta_epoch": "2025-12-22T17:26:15.520992",
        "meta_mean_motion": 14.82709792,
        "meta_eccentricity": 0.00130474,
        "meta_inclination": 97.9196,
        "meta_ra_of_asc_node": 286.7284,
        "meta_arg_of_pericenter": 287.9975,
        "meta_mean_anomaly": 71.9816,
        "meta_ephemeris_type": 0,
        "meta_classification_type": "U",
        "meta_norad_cat_id": 33446,
        "meta_element_set_no": 999,
        "meta_rev_at_epoch": 91951,
        "meta_bstar": 0.00015592238,
        "meta_mean_motion_dot": 1.206e-05,
        "meta_mean_motion_ddot": 0,
        "tle_line1": "1 33446U 08061A   25356.72656853  .00001206  00000+0  15592-3 0  9991",
        "tle_line2": "2 33446  97.9196 286.7284 0013047 287.9975  71.9816 14.82709792919518"
      },
      "geometry": {
        "type": "Point",
        "coordinates": [
          -79.4362042740526,
          40.5509278770777
        ]
      }
    },
    {
      "type": "Feature",
      "properties": {
        "norad_id": 35681,
        "name": "DEIMOS-1",
        "group": "dmc",
        "lat": -53.22841998457428,
        "lon": -32.93539916144587,
        "alt_km": 654.0362930772826,
        "timestamp": "2025-12-23T09:49:06.742913+00:00",
        "meta_object_name": "DEIMOS-1",
        "meta_object_id": "2009-041A",
        "meta_epoch": "2025-12-22T22:59:33.720288",
        "meta_mean_motion": 14.74967944,
        "meta_eccentricity": 0.000256,
        "meta_inclination": 97.7151,
        "meta_ra_of_asc_node": 157.086,
        "meta_arg_of_pericenter": 63.691,
        "meta_mean_anomaly": 296.4563,
        "meta_ephemeris_type": 0,
        "meta_classification_type": "U",
        "meta_norad_cat_id": 35681,
        "meta_element_set_no": 999,
        "meta_rev_at_epoch": 88090,
        "meta_bstar": 0.00014227281,
        "meta_mean_motion_dot": 9.09e-06,
        "meta_mean_motion_ddot": 0,
        "tle_line1": "1 35681U 09041A   25356.95802917  .00000909  00000+0  14227-3 0  9995",
        "tle_line2": "2 35681  97.7151 157.0860 0002560  63.6910 296.4563 14.74967944880905"
      },
      "geometry": {
        "type": "Point",
        "coordinates": [
          -32.93539916144587,
          -53.22841998457428
        ]
      }
    },
    {
      "type": "Feature",
      "properties": {
        "norad_id": 35683,
        "name": "UK-DMC 2",
        "group": "dmc",
        "lat": -80.78418249877934,
        "lon": -169.65870331286058,
        "alt_km": 651.5494723740685,
        "timestamp": "2025-12-23T09:49:06.742925+00:00",
        "meta_object_name": "UK-DMC 2",
        "meta_object_id": "2009-041C",
        "meta_epoch": "2025-12-22T22:48:44.535744",
        "meta_mean_motion": 14.7564257,
        "meta_eccentricity": 0.0001552,
        "meta_inclination": 97.8569,
        "meta_ra_of_asc_node": 131.5655,
        "meta_arg_of_pericenter": 91.8293,
        "meta_mean_anomaly": 268.3095,
        "meta_ephemeris_type": 0,
        "meta_classification_type": "U",
        "meta_norad_cat_id": 35683,
        "meta_element_set_no": 999,
        "meta_rev_at_epoch": 88057,
        "meta_bstar": 0.00018084377,
        "meta_mean_motion_dot": 1.186e-05,
        "meta_mean_motion_ddot": 0,
        "tle_line1": "1 35683U 09041C   25356.95051546  .00001186  00000+0  18084-3 0  9994",
        "tle_line2": "2 35683  97.8569 131.5655 0001552  91.8293 268.3095 14.75642570880574"
      },
      "geometry": {
        "type": "Point",
        "coordinates": [
          -169.65870331286058,
          -80.78418249877934
        ]
      }
    },
    {
      "type": "Feature",
      "properties": {
        "norad_id": 40715,
        "name": "DMC3-FM1",
        "group": "dmc",
        "lat": -19.74056740370794,
        "lon": -133.0160311456148,
        "alt_km": 616.02440310762,
        "timestamp": "2025-12-23T09:49:06.742936+00:00",
        "meta_object_name": "DMC3-FM1",
        "meta_object_id": "2015-032A",
        "meta_epoch": "2025-12-22T22:35:29.126112",
        "meta_mean_motion": 14.85459521,
        "meta_eccentricity": 0.00040324,
        "meta_inclination": 97.6686,
        "meta_ra_of_asc_node": 223.762,
        "meta_arg_of_pericenter": 279.6153,
        "meta_mean_anomaly": 80.4607,
        "meta_ephemeris_type": 0,
        "meta_classification_type": "U",
        "meta_norad_cat_id": 40715,
        "meta_element_set_no": 999,
        "meta_rev_at_epoch": 56374,
        "meta_bstar": 0.0001769776,
        "meta_mean_motion_dot": 1.475e-05,
        "meta_mean_motion_ddot": 0,
        "tle_line1": "1 40715U 15032A   25356.94130933  .00001475  00000+0  17698-3 0  9991",
        "tle_line2": "2 40715  97.6686 223.7620 0004032 279.6153  80.4607 14.85459521563749"
      },
      "geometry": {
        "type": "Point",
        "coordinates": [
          -133.0160311456148,
          -19.74056740370794
        ]
      }
    },
    {
      "type": "Feature",
      "properties": {
        "norad_id": 40716,
        "name": "DMC3-FM2",
        "group": "dmc",
        "lat": -39.60262093113485,
        "lon": 39.25864817099077,
        "alt_km": 617.2946341140387,
        "timestamp": "2025-12-23T09:49:06.742946+00:00",
        "meta_object_name": "DMC3-FM2",
        "meta_object_id": "2015-032B",
        "meta_epoch": "2025-12-22T21:30:51.727392",
        "meta_mean_motion": 14.85457717,
        "meta_eccentricity": 0.00046752,
        "meta_inclination": 97.6743,
        "meta_ra_of_asc_node": 225.1697,
        "meta_arg_of_pericenter": 286.6429,
        "meta_mean_anomaly": 73.4274,
        "meta_ephemeris_type": 0,
        "meta_classification_type": "U",
        "meta_norad_cat_id": 40716,
        "meta_element_set_no": 999,
        "meta_rev_at_epoch": 56373,
        "meta_bstar": 6.0215741e-05,
        "meta_mean_motion_dot": 4.68e-06,
        "meta_mean_motion_ddot": 0,
        "tle_line1": "1 40716U 15032B   25356.89643203  .00000468  00000+0  60216-4 0  9991",
        "tle_line2": "2 40716  97.6743 225.1697 0004675 286.6429  73.4274 14.85457717563737"
      },
      "geometry": {
        "type": "Point",
        "coordinates": [
          39.25864817099077,
          -39.60262093113485
        ]
      }
    },
    {
      "type": "Feature",
      "properties": {
        "norad_id": 40717,
        "name": "DMC3-FM3",
        "group": "dmc",
        "lat": 74.11433298580398,
        "lon": 75.60739853683299,
        "alt_km": 607.9751533894414,
        "timestamp": "2025-12-23T09:49:06.742956+00:00",
        "meta_object_name": "DMC3-FM3",
        "meta_object_id": "2015-032C",
        "meta_epoch": "2025-12-22T22:02:07.780704",
        "meta_mean_motion": 14.85442641,
        "meta_eccentricity": 0.00040794,
        "meta_inclination": 97.6796,
        "meta_ra_of_asc_node": 226.8305,
        "meta_arg_of_pericenter": 287.5437,
        "meta_mean_anomaly": 72.5333,
        "meta_ephemeris_type": 0,
        "meta_classification_type": "U",
        "meta_norad_cat_id": 40717,
        "meta_element_set_no": 999,
        "meta_rev_at_epoch": 56374,
        "meta_bstar": 6.8912958e-05,
        "meta_mean_motion_dot": 5.42e-06,
        "meta_mean_motion_ddot": 0,
        "tle_line1": "1 40717U 15032C   25356.91814561  .00000542  00000+0  68913-4 0  9997",
        "tle_line2": "2 40717  97.6796 226.8305 0004079 287.5437  72.5333 14.85442641563744"
      },
      "geometry": {
        "type": "Point",
        "coordinates": [
          75.60739853683299,
          74.11433298580398
        ]
      }
    }
  ]
}